SL-14 R/B               
1 21423U 91042B   26002.78367839  .00000849  00000+0  10441-3 0  9992
2 21423  82.4936 281.9918 0018572  96.9128 263.4200 14.81762852843312
ERS-1                   
1 21574U 91050A   26002.66074673  .00000707  00000+0  24081-3 0  9994
2 21574  98.7896  19.2383 0032638  39.6190 320.7373 14.39385157806234
ARIANE 40 R/B           
1 21610U 91050F   26002.72990427  .00000719  00000+0  22809-3 0  9995
2 21610  98.2135  57.4000 0001995 274.3873  85.7090 14.42834332809486
INTERCOSMOS 25          
1 21819U 91086A   26002.35825678  .00002417  00000+0  48162-3 0  9996
2 21819  82.6075 350.1031 1486008 259.9251  83.1501 12.11815809488659
SL-8 R/B                
1 21876U 92008B   26002.64458469  .00000154  00000+0  14274-3 0  9999
2 21876  82.9281 316.8978 0033935 321.1137 211.9818 13.75964087700332
SL-8 R/B                
1 21938U 92020B   26002.64554851  .00000253  00000+0  24567-3 0  9990
2 21938  82.9290 202.7927 0030040 120.9856 304.3270 13.75533882692058
USA 81                  
1 21949U 92023A   26002.50287284  .00000413  00000+0  14579-3 0  9993
2 21949  85.0090 169.6014 0001124 106.6815 253.4501 14.32337006 85317
COSMOS 2219             
1 22219U 92076A   26002.73415182  .00000399  00000+0  23403-3 0  9996
2 22219  71.0602 155.9456 0020007 297.8525  62.0571 14.14076135709050
SL-16 R/B               
1 22220U 92076B   26002.63677230 -.00000105  00000+0 -28331-4 0  9994
2 22220  71.0011 327.5119 0013781 205.7599 326.7484 14.16845540712478
COSMOS 2221             
1 22236U 92080A   26002.42164585  .00004590  00000+0  40749-3 0  9993
2 22236  82.5044 342.5271 0016038  58.7841 301.4950 14.95865748770884
SL-16 R/B               
1 22285U 92093B   26002.73333092 -.00000124  00000+0 -39240-4 0  9992
2 22285  71.0212 142.7269 0002966  12.6458 347.4739 14.15434521703821
COSMOS 2228             
1 22286U 92094A   26002.74866686  .00004414  00000+0  38167-3 0  9995
2 22286  82.5194 300.4323 0018444 158.3604 201.8401 14.96848759766190
