CCSDS_OMM_VERS = 2.0
CREATION_DATE  = 
ORIGINATOR     = 

OBJECT_NAME    = SL-14 R/B
OBJECT_ID      = 1991-042B
CENTER_NAME    = EARTH
REF_FRAME      = TEME
TIME_SYSTEM    = UTC
MEAN_ELEMENT_THEORY = SGP/SGP4

EPOCH          = 2026-01-02T18:48:29.812896
MEAN_MOTION    = 14.81762852
ECCENTRICITY   = .0018572
INCLINATION    = 82.4936
RA_OF_ASC_NODE = 281.9918
ARG_OF_PERICENTER = 96.9128
MEAN_ANOMALY   = 263.4200

EPHEMERIS_TYPE = 0
CLASSIFICATION_TYPE = U
NORAD_CAT_ID   = 21423
ELEMENT_SET_NO = 999
REV_AT_EPOCH   = 84331
BSTAR          = .10441E-3
MEAN_MOTION_DOT = .849E-5
MEAN_MOTION_DDOT = 0

CCSDS_OMM_VERS = 2.0
CREATION_DATE  = 
ORIGINATOR     = 

OBJECT_NAME    = ERS-1
OBJECT_ID      = 1991-050A
CENTER_NAME    = EARTH
REF_FRAME      = TEME
TIME_SYSTEM    = UTC
MEAN_ELEMENT_THEORY = SGP/SGP4

EPOCH          = 2026-01-02T15:51:28.517472
MEAN_MOTION    = 14.39385157
ECCENTRICITY   = .0032638
INCLINATION    = 98.7896
RA_OF_ASC_NODE = 19.2383
ARG_OF_PERICENTER = 39.6190
MEAN_ANOMALY   = 320.7373

EPHEMERIS_TYPE = 0
CLASSIFICATION_TYPE = U
NORAD_CAT_ID   = 21574
ELEMENT_SET_NO = 999
REV_AT_EPOCH   = 80623
BSTAR          = .24081E-3
MEAN_MOTION_DOT = .707E-5
MEAN_MOTION_DDOT = 0

CCSDS_OMM_VERS = 2.0
CREATION_DATE  = 
ORIGINATOR     = 

OBJECT_NAME    = ARIANE 40 R/B
OBJECT_ID      = 1991-050F
CENTER_NAME    = EARTH
REF_FRAME      = TEME
TIME_SYSTEM    = UTC
MEAN_ELEMENT_THEORY = SGP/SGP4

EPOCH          = 2026-01-02T17:31:03.728928
MEAN_MOTION    = 14.42834332
ECCENTRICITY   = .0001995
INCLINATION    = 98.2135
RA_OF_ASC_NODE = 57.4000
ARG_OF_PERICENTER = 274.3873
MEAN_ANOMALY   = 85.7090

EPHEMERIS_TYPE = 0
CLASSIFICATION_TYPE = U
NORAD_CAT_ID   = 21610
ELEMENT_SET_NO = 999
REV_AT_EPOCH   = 80948
BSTAR          = .22809E-3
MEAN_MOTION_DOT = .719E-5
MEAN_MOTION_DDOT = 0

CCSDS_OMM_VERS = 2.0
CREATION_DATE  = 
ORIGINATOR     = 

OBJECT_NAME    = INTERCOSMOS 25
OBJECT_ID      = 1991-086A
CENTER_NAME    = EARTH
REF_FRAME      = TEME
TIME_SYSTEM    = UTC
MEAN_ELEMENT_THEORY = SGP/SGP4

EPOCH          = 2026-01-02T08:35:53.385792
MEAN_MOTION    = 12.11815809
ECCENTRICITY   = .1486008
INCLINATION    = 82.6075
RA_OF_ASC_NODE = 350.1031
ARG_OF_PERICENTER = 259.9251
MEAN_ANOMALY   = 83.1501

EPHEMERIS_TYPE = 0
CLASSIFICATION_TYPE = U
NORAD_CAT_ID   = 21819
ELEMENT_SET_NO = 999
REV_AT_EPOCH   = 48865
BSTAR          = .48162E-3
MEAN_MOTION_DOT = .2417E-4
MEAN_MOTION_DDOT = 0

CCSDS_OMM_VERS = 2.0
CREATION_DATE  = 
ORIGINATOR     = 

OBJECT_NAME    = SL-8 R/B
OBJECT_ID      = 1992-008B
CENTER_NAME    = EARTH
REF_FRAME      = TEME
TIME_SYSTEM    = UTC
MEAN_ELEMENT_THEORY = SGP/SGP4

EPOCH          = 2026-01-02T15:28:12.117216
MEAN_MOTION    = 13.75964087
ECCENTRICITY   = .0033935
INCLINATION    = 82.9281
RA_OF_ASC_NODE = 316.8978
ARG_OF_PERICENTER = 321.1137
MEAN_ANOMALY   = 211.9818

EPHEMERIS_TYPE = 0
CLASSIFICATION_TYPE = U
NORAD_CAT_ID   = 21876
ELEMENT_SET_NO = 999
REV_AT_EPOCH   = 70033
BSTAR          = .14274E-3
MEAN_MOTION_DOT = .154E-5
MEAN_MOTION_DDOT = 0

CCSDS_OMM_VERS = 2.0
CREATION_DATE  = 
ORIGINATOR     = 

OBJECT_NAME    = SL-8 R/B
OBJECT_ID      = 1992-020B
CENTER_NAME    = EARTH
REF_FRAME      = TEME
TIME_SYSTEM    = UTC
MEAN_ELEMENT_THEORY = SGP/SGP4

EPOCH          = 2026-01-02T15:29:35.391264
MEAN_MOTION    = 13.75533882
ECCENTRICITY   = .003004
INCLINATION    = 82.9290
RA_OF_ASC_NODE = 202.7927
ARG_OF_PERICENTER = 120.9856
MEAN_ANOMALY   = 304.3270

EPHEMERIS_TYPE = 0
CLASSIFICATION_TYPE = U
NORAD_CAT_ID   = 21938
ELEMENT_SET_NO = 999
REV_AT_EPOCH   = 69205
BSTAR          = .24567E-3
MEAN_MOTION_DOT = .253E-5
MEAN_MOTION_DDOT = 0

CCSDS_OMM_VERS = 2.0
CREATION_DATE  = 
ORIGINATOR     = 

OBJECT_NAME    = USA 81
OBJECT_ID      = 1992-023A
CENTER_NAME    = EARTH
REF_FRAME      = TEME
TIME_SYSTEM    = UTC
MEAN_ELEMENT_THEORY = SGP/SGP4

EPOCH          = 2026-01-02T12:04:08.213376
MEAN_MOTION    = 14.32337006
ECCENTRICITY   = .0001124
INCLINATION    = 85.0090
RA_OF_ASC_NODE = 169.6014
ARG_OF_PERICENTER = 106.6815
MEAN_ANOMALY   = 253.4501

EPHEMERIS_TYPE = 0
CLASSIFICATION_TYPE = U
NORAD_CAT_ID   = 21949
ELEMENT_SET_NO = 999
REV_AT_EPOCH   = 8531
BSTAR          = .14579E-3
MEAN_MOTION_DOT = .413E-5
MEAN_MOTION_DDOT = 0

CCSDS_OMM_VERS = 2.0
CREATION_DATE  = 
ORIGINATOR     = 

OBJECT_NAME    = COSMOS 2219
OBJECT_ID      = 1992-076A
CENTER_NAME    = EARTH
REF_FRAME      = TEME
TIME_SYSTEM    = UTC
MEAN_ELEMENT_THEORY = SGP/SGP4

EPOCH          = 2026-01-02T17:37:10.717248
MEAN_MOTION    = 14.14076135
ECCENTRICITY   = .0020007
INCLINATION    = 71.0602
RA_OF_ASC_NODE = 155.9456
ARG_OF_PERICENTER = 297.8525
MEAN_ANOMALY   = 62.0571

EPHEMERIS_TYPE = 0
CLASSIFICATION_TYPE = U
NORAD_CAT_ID   = 22219
ELEMENT_SET_NO = 999
REV_AT_EPOCH   = 70905
BSTAR          = .23403E-3
MEAN_MOTION_DOT = .399E-5
MEAN_MOTION_DDOT = 0

CCSDS_OMM_VERS = 2.0
CREATION_DATE  = 
ORIGINATOR     = 

OBJECT_NAME    = SL-16 R/B
OBJECT_ID      = 1992-076B
CENTER_NAME    = EARTH
REF_FRAME      = TEME
TIME_SYSTEM    = UTC
MEAN_ELEMENT_THEORY = SGP/SGP4

EPOCH          = 2026-01-02T15:16:57.126720
MEAN_MOTION    = 14.16845540
ECCENTRICITY   = .0013781
INCLINATION    = 71.0011
RA_OF_ASC_NODE = 327.5119
ARG_OF_PERICENTER = 205.7599
MEAN_ANOMALY   = 326.7484

EPHEMERIS_TYPE = 0
CLASSIFICATION_TYPE = U
NORAD_CAT_ID   = 22220
ELEMENT_SET_NO = 999
REV_AT_EPOCH   = 71247
BSTAR          = -.28331E-4
MEAN_MOTION_DOT = -.105E-5
MEAN_MOTION_DDOT = 0

CCSDS_OMM_VERS = 2.0
CREATION_DATE  = 
ORIGINATOR     = 

OBJECT_NAME    = COSMOS 2221
OBJECT_ID      = 1992-080A
CENTER_NAME    = EARTH
REF_FRAME      = TEME
TIME_SYSTEM    = UTC
MEAN_ELEMENT_THEORY = SGP/SGP4

EPOCH          = 2026-01-02T10:07:10.201440
MEAN_MOTION    = 14.95865748
ECCENTRICITY   = .0016038
INCLINATION    = 82.5044
RA_OF_ASC_NODE = 342.5271
ARG_OF_PERICENTER = 58.7841
MEAN_ANOMALY   = 301.4950

EPHEMERIS_TYPE = 0
CLASSIFICATION_TYPE = U
NORAD_CAT_ID   = 22236
ELEMENT_SET_NO = 999
REV_AT_EPOCH   = 77088
BSTAR          = .40749E-3
MEAN_MOTION_DOT = .459E-4
MEAN_MOTION_DDOT = 0

CCSDS_OMM_VERS = 2.0
CREATION_DATE  = 
ORIGINATOR     = 

OBJECT_NAME    = SL-16 R/B
OBJECT_ID      = 1992-093B
CENTER_NAME    = EARTH
REF_FRAME      = TEME
TIME_SYSTEM    = UTC
MEAN_ELEMENT_THEORY = SGP/SGP4

EPOCH          = 2026-01-02T17:35:59.791488
MEAN_MOTION    = 14.15434521
ECCENTRICITY   = .0002966
INCLINATION    = 71.0212
RA_OF_ASC_NODE = 142.7269
ARG_OF_PERICENTER = 12.6458
MEAN_ANOMALY   = 347.4739

EPHEMERIS_TYPE = 0
CLASSIFICATION_TYPE = U
NORAD_CAT_ID   = 22285
ELEMENT_SET_NO = 999
REV_AT_EPOCH   = 70382
BSTAR          = -.3924E-4
MEAN_MOTION_DOT = -.124E-5
MEAN_MOTION_DDOT = 0

CCSDS_OMM_VERS = 2.0
CREATION_DATE  = 
ORIGINATOR     = 

OBJECT_NAME    = COSMOS 2228
OBJECT_ID      = 1992-094A
CENTER_NAME    = EARTH
REF_FRAME      = TEME
TIME_SYSTEM    = UTC
MEAN_ELEMENT_THEORY = SGP/SGP4

EPOCH          = 2026-01-02T17:58:04.816704
MEAN_MOTION    = 14.96848759
ECCENTRICITY   = .0018444
INCLINATION    = 82.5194
RA_OF_ASC_NODE = 300.4323
ARG_OF_PERICENTER = 158.3604
MEAN_ANOMALY   = 201.8401

EPHEMERIS_TYPE = 0
CLASSIFICATION_TYPE = U
NORAD_CAT_ID   = 22286
ELEMENT_SET_NO = 999
REV_AT_EPOCH   = 76619
BSTAR          = .38167E-3
MEAN_MOTION_DOT = .4414E-4
MEAN_MOTION_DDOT = 0

